{
  "type": "FeatureCollection",
  "features": [
    {
      "type": "Feature",
      "properties": {
        "norad_id": 26766,
        "name": "INTELSAT 10 (IS-10)",
        "group": "intelsat",
        "lat": -6.954042397703387,
        "lon": 7.794912820872978,
        "alt_km": 36118.91052065323,
        "timestamp": "2025-12-20T11:30:28.038320+00:00",
        "meta_object_name": "INTELSAT 10 (IS-10)",
        "meta_object_id": "2001-019A",
        "meta_epoch": "2025-12-19T15:29:42.245376",
        "meta_mean_motion": 0.99074952,
        "meta_eccentricity": 0.00077634,
        "meta_inclination": 8.645,
        "meta_ra_of_asc_node": 61.0877,
        "meta_arg_of_pericenter": 228.9364,
        "meta_mean_anomaly": 139.953,
        "meta_ephemeris_type": 0,
        "meta_classification_type": "U",
        "meta_norad_cat_id": 26766,
        "meta_element_set_no": 999,
        "meta_rev_at_epoch": 4380,
        "meta_bstar": 0,
        "meta_mean_motion_dot": -1.33e-06,
        "meta_mean_motion_ddot": 0,
        "tle_line1": "1 26766U 01019A   25353.64562784 -.00000133  00000+0  00000+0 0  9994",
        "tle_line2": "2 26766   8.6450  61.0877 0007763 228.9364 139.9530  0.99074952 43808"
      },
      "geometry": {
        "type": "Point",
        "coordinates": [
          7.794912820872978,
          -6.954042397703387
        ]
      }
    },
    {
      "type": "Feature",
      "properties": {
        "norad_id": 26900,
        "name": "INTELSAT 902 (IS-902)",
        "group": "intelsat",
        "lat": 3.7939229174872677,
        "lon": -148.10993950757788,
        "alt_km": 35774.642771074024,
        "timestamp": "2025-12-20T11:30:28.038344+00:00",
        "meta_object_name": "INTELSAT 902 (IS-902)",
        "meta_object_id": "2001-039A",
        "meta_epoch": "2025-12-15T13:09:02.081664",
        "meta_mean_motion": 1.0027087,
        "meta_eccentricity": 0.00045028,
        "meta_inclination": 5.6536,
        "meta_ra_of_asc_node": 74.0372,
        "meta_arg_of_pericenter": 189.6359,
        "meta_mean_anomaly": 327.9329,
        "meta_ephemeris_type": 0,
        "meta_classification_type": "U",
        "meta_norad_cat_id": 26900,
        "meta_element_set_no": 999,
        "meta_rev_at_epoch": 8885,
        "meta_bstar": 0,
        "meta_mean_motion_dot": -2.65e-06,
        "meta_mean_motion_ddot": 0,
        "tle_line1": "1 26900U 01039A   25349.54794076 -.00000265  00000+0  00000+0 0  9997",
        "tle_line2": "2 26900   5.6536  74.0372 0004502 189.6359 327.9329  1.00270870 88858"
      },
      "geometry": {
        "type": "Point",
        "coordinates": [
          -148.10993950757788,
          3.7939229174872677
        ]
      }
    },
    {
      "type": "Feature",
      "properties": {
        "norad_id": 27380,
        "name": "INTELSAT 904 (IS-904)",
        "group": "intelsat",
        "lat": 2.292151137718258,
        "lon": -129.47223310701526,
        "alt_km": 35785.848412559826,
        "timestamp": "2025-12-20T11:30:28.038360+00:00",
        "meta_object_name": "INTELSAT 904 (IS-904)",
        "meta_object_id": "2002-007A",
        "meta_epoch": "2025-12-20T00:12:38.707776",
        "meta_mean_motion": 1.00271119,
        "meta_eccentricity": 0.0001788,
        "meta_inclination": 6.4716,
        "meta_ra_of_asc_node": 71.3489,
        "meta_arg_of_pericenter": 248.0569,
        "meta_mean_anomaly": 101.1022,
        "meta_ephemeris_type": 0,
        "meta_classification_type": "U",
        "meta_norad_cat_id": 27380,
        "meta_element_set_no": 999,
        "meta_rev_at_epoch": 4996,
        "meta_bstar": 0,
        "meta_mean_motion_dot": -2.07e-06,
        "meta_mean_motion_ddot": 0,
        "tle_line1": "1 27380U 02007A   25354.00878134 -.00000207  00000+0  00000+0 0  9997",
        "tle_line2": "2 27380   6.4716  71.3489 0001788 248.0569 101.1022  1.00271119 49963"
      },
      "geometry": {
        "type": "Point",
        "coordinates": [
          -129.47223310701526,
          2.292151137718258
        ]
      }
    },
    {
      "type": "Feature",
      "properties": {
        "norad_id": 27426,
        "name": "DIRECTV 5 (TEMPO 1)",
        "group": "intelsat",
        "lat": 4.268933969433989,
        "lon": 151.7474112377759,
        "alt_km": 35795.53084524944,
        "timestamp": "2025-12-20T11:30:28.038374+00:00",
        "meta_object_name": "DIRECTV 5 (TEMPO 1)",
        "meta_object_id": "2002-023A",
        "meta_epoch": "2025-12-20T00:59:06.911808",
        "meta_mean_motion": 1.00272785,
        "meta_eccentricity": 0.0003447,
        "meta_inclination": 4.4196,
        "meta_ra_of_asc_node": 77.5684,
        "meta_arg_of_pericenter": 209.2291,
        "meta_mean_anomaly": 66.7541,
        "meta_ephemeris_type": 0,
        "meta_classification_type": "U",
        "meta_norad_cat_id": 27426,
        "meta_element_set_no": 999,
        "meta_rev_at_epoch": 8632,
        "meta_bstar": 0,
        "meta_mean_motion_dot": -3.7e-07,
        "meta_mean_motion_ddot": 0,
        "tle_line1": "1 27426U 02023A   25354.04105222 -.00000037  00000+0  00000+0 0  9992",
        "tle_line2": "2 27426   4.4196  77.5684 0003447 209.2291  66.7541  1.00272785 86327"
      },
      "geometry": {
        "type": "Point",
        "coordinates": [
          151.7474112377759,
          4.268933969433989
        ]
      }
    },
    {
      "type": "Feature",
      "properties": {
        "norad_id": 27438,
        "name": "INTELSAT 905 (IS-905)",
        "group": "intelsat",
        "lat": 5.036774746397325,
        "lon": 124.53391606849543,
        "alt_km": 35794.68520395285,
        "timestamp": "2025-12-20T11:30:28.038386+00:00",
        "meta_object_name": "INTELSAT 905 (IS-905)",
        "meta_object_id": "2002-027A",
        "meta_epoch": "2025-12-20T04:33:38.541024",
        "meta_mean_motion": 1.00272501,
        "meta_eccentricity": 0.0002647,
        "meta_inclination": 6.3031,
        "meta_ra_of_asc_node": 71.9703,
        "meta_arg_of_pericenter": 200.4216,
        "meta_mean_anomaly": 107.837,
        "meta_ephemeris_type": 0,
        "meta_classification_type": "U",
        "meta_norad_cat_id": 27438,
        "meta_element_set_no": 999,
        "meta_rev_at_epoch": 4956,
        "meta_bstar": 0,
        "meta_mean_motion_dot": 1.13e-06,
        "meta_mean_motion_ddot": 0,
        "tle_line1": "1 27438U 02027A   25354.19002941  .00000113  00000+0  00000+0 0  9993",
        "tle_line2": "2 27438   6.3031  71.9703 0002647 200.4216 107.8370  1.00272501 49568"
      },
      "geometry": {
        "type": "Point",
        "coordinates": [
          124.53391606849543,
          5.036774746397325
        ]
      }
    },
    {
      "type": "Feature",
      "properties": {
        "norad_id": 27445,
        "name": "GALAXY 3C (G-3C)",
        "group": "intelsat",
        "lat": 3.2839524485884684,
        "lon": 167.0626016564117,
        "alt_km": 35781.020879260446,
        "timestamp": "2025-12-20T11:30:28.038398+00:00",
        "meta_object_name": "GALAXY 3C (G-3C)",
        "meta_object_id": "2002-030A",
        "meta_epoch": "2025-12-20T03:29:00.039840",
        "meta_mean_motion": 1.00271829,
        "meta_eccentricity": 0.0001118,
        "meta_inclination": 3.2813,
        "meta_ra_of_asc_node": 80.4298,
        "meta_arg_of_pericenter": 77.884,
        "meta_mean_anomaly": 248.0601,
        "meta_ephemeris_type": 0,
        "meta_classification_type": "U",
        "meta_norad_cat_id": 27445,
        "meta_element_set_no": 999,
        "meta_rev_at_epoch": 4469,
        "meta_bstar": 0,
        "meta_mean_motion_dot": -1.31e-06,
        "meta_mean_motion_ddot": 0,
        "tle_line1": "1 27445U 02030A   25354.14513935 -.00000131  00000+0  00000+0 0  9991",
        "tle_line2": "2 27445   3.2813  80.4298 0001118  77.8840 248.0601  1.00271829 44691"
      },
      "geometry": {
        "type": "Point",
        "coordinates": [
          167.0626016564117,
          3.2839524485884684
        ]
      }
    },
    {
      "type": "Feature",
      "properties": {
        "norad_id": 27513,
        "name": "INTELSAT 906 (IS-906)",
        "group": "intelsat",
        "lat": -5.073799110367977,
        "lon": -33.959808553525,
        "alt_km": 35770.18668981121,
        "timestamp": "2025-12-20T11:30:28.038411+00:00",
        "meta_object_name": "INTELSAT 906 (IS-906)",
        "meta_object_id": "2002-041A",
        "meta_epoch": "2025-12-19T20:34:46.617600",
        "meta_mean_motion": 1.00272721,
        "meta_eccentricity": 0.00063182,
        "meta_inclination": 5.3475,
        "meta_ra_of_asc_node": 75.1475,
        "meta_arg_of_pericenter": 198.3862,
        "meta_mean_anomaly": 187.9892,
        "meta_ephemeris_type": 0,
        "meta_classification_type": "U",
        "meta_norad_cat_id": 27513,
        "meta_element_set_no": 999,
        "meta_rev_at_epoch": 8523,
        "meta_bstar": 0,
        "meta_mean_motion_dot": 3.3e-07,
        "meta_mean_motion_ddot": 0,
        "tle_line1": "1 27513U 02041A   25353.85748400  .00000033  00000+0  00000+0 0  9993",
        "tle_line2": "2 27513   5.3475  75.1475 0006318 198.3862 187.9892  1.00272721 85232"
      },
      "geometry": {
        "type": "Point",
        "coordinates": [
          -33.959808553525,
          -5.073799110367977
        ]
      }
    }
  ]
}